0 COSMOS 2251 DEB
1 33844U 93036CM  13281.79980307  .00000475  00000-0  20433-3 0  8003
2 33844 074.0706 192.3158 0055137 245.7147 169.1853 14.26601964242266
0 COSMOS 2251 DEB
1 33844U 93036CM  13283.83441118  .00000543  00000-0  23171-3 0  8011
2 33844 074.0705 188.6451 0055062 241.5612 178.4471 14.26605872242550
0 COSMOS 2251 DEB
1 33844U 93036CM  13286.15953081  .00000522  00000-0  22338-3 0  8028
2 33844 074.0702 184.4504 0054942 236.8082 239.7351 14.26608505242884
0 COSMOS 2251 DEB
1 33844U 93036CM  13288.40427319  .00000804  00000-0  33803-3 0  8031
2 33844 074.0698 180.4006 0054888 232.2603 248.2077 14.26611784243209
0 COSMOS 2251 DEB
1 33844U 93036CM  13290.70643620  .00000670  00000-0  28369-3 0  8045
2 33844 074.0692 176.2472 0054814 227.5668 191.6389 14.26615199243537
0 COSMOS 2251 DEB
1 33844U 93036CM  13292.73918624  .00000610  00000-0  25895-3 0  8055
2 33844 074.0691 172.5801 0054727 223.3959 191.4679 14.26618441243826
0 COSMOS 2251 DEB
1 33844U 93036CM  13294.77605691  .00000705  00000-0  29775-3 0  8065
2 33844 074.0691 168.9049 0054631 219.2473 212.4546 14.26621242244111
